1 39741U 14026A   18153.82895221 -.00000030  00000-0  00000-0 0  9996
2 39741  55.6398  86.3249 0013635 294.1863  65.6590  2.00568290 29649
1 39741U 14026A   18153.82895223 -.00000030  00000-0  00000+0 0  9997
2 39741  55.6398  86.3249 0013632 294.1622  65.6831  2.00568282 29626
1 39741U 14026A   18154.32752473 -.00000028  00000-0  00000-0 0  9990
2 39741  55.6401  86.3051 0013624 294.1935  65.6538  2.00568215 29653
1 39741U 14026A   18154.82609502 -.00000026  00000-0  00000+0 0  9996
2 39741  55.6404  86.2853 0013616 294.1994  65.6496  2.00568229 29648
1 39741U 14026A   18154.82609530 -.00000026  00000-0  00000-0 0  9998
2 39741  55.6404  86.2853 0013616 294.2229  65.6262  2.00568227 29661
1 39741U 14026A   18155.32466678 -.00000024  00000-0  00000-0 0  9996
2 39741  55.6406  86.2655 0013613 294.2271  65.6234  2.00568157 29679
1 39741U 14026A   18155.32466894 -.00000024  00000-0  00000-0 0  9996
2 39741  55.6406  86.2655 0013601 294.2675  65.5831  2.00568079 29679
1 39741U 14026A   18155.82324065 -.00000024  00000-0  00000+0 0  9993
2 39741  55.6409  86.2457 0013596 294.2811  65.5706  2.00568012 29664
1 39741U 14026A   18156.82037906 -.00000024  00000-0  00000-0 0  9990
2 39741  55.6415  86.2061 0013585 294.3093  65.5436  2.00568034 29702
1 39741U 14026A   18157.31894825 -.00000024  00000-0  00000-0 0  9996
2 39741  55.6417  86.1863 0013574 294.3312  65.5220  2.00567990 29717
1 39741U 14026A   18157.31894997 -.00000024  00000-0  00000-0 0  9996
2 39741  55.6417  86.1863 0013557 294.3650  65.4883  2.00567916 29715
1 39741U 14026A   18157.81751950 -.00000025  00000-0  00000+0 0  9992
2 39741  55.6420  86.1664 0013552 294.3984  65.4548  2.00567878 29707
1 39741U 14026A   18158.81465760 -.00000027  00000-0  00000+0 0  9996
2 39741  55.6426  86.1268 0013529 294.4296  65.4227  2.00567813 29729
1 39741U 14026A   18158.81465760 -.00000027  00000-0  00000-0 0  9997
2 39741  55.6426  86.1268 0013529 294.4296  65.4227  2.00567813 29729
1 39741U 14026A   18158.81465821 -.00000027  00000-0  00000-0 0  9995
2 39741  55.6426  86.1268 0013534 294.4289  65.4233  2.00567815 29748
1 39741U 14026A   18159.81179409 -.00000030  00000-0  00000-0 0  9994
2 39741  55.6432  86.0871 0013498 294.4929  65.3581  2.00567803 29768
1 39741U 14026A   18159.81179555 -.00000030  00000-0  00000+0 0  9995
2 39741  55.6432  86.0871 0013503 294.5125  65.3385  2.00567717 29748
1 39741U 14026A   18160.80893551 -.00000033  00000-0  00000-0 0  9999
2 39741  55.6438  86.0474 0013484 294.5361  65.3136  2.00567620 29784
1 39741U 14026A   18161.30750371 -.00000034  00000-0  00000-0 0  9998
2 39741  55.6440  86.0276 0013461 294.5814  65.2681  2.00567597 29793
1 39741U 14026A   18161.30750448 -.00000034  00000-0  00000+0 0  9992
2 39741  55.6441  86.0276 0013469 294.5562  65.2931  2.00567586 29776
1 39741U 14026A   18161.80607478 -.00000035  00000-0  00000+0 0  9992
2 39741  55.6444  86.0078 0013452 294.5996  65.2498  2.00567529 29788
1 39741U 14026A   18162.30464592 -.00000036  00000-0  00000-0 0  9998
2 39741  55.6447  85.9879 0013449 294.5993  65.2502  2.00567486 29813
1 39741U 14026A   18163.30179109 -.00000036  00000-0  00000-0 0  9996
2 39741  55.6452  85.9482 0013422 294.6472  65.2039  2.00567343 29832
1 39741U 14026A   18163.30179237 -.00000036  00000-0  00000+0 0  9997
2 39741  55.6453  85.9482 0013431 294.6262  65.2249  2.00567309 29813
1 39741U 14026A   18163.80036287 -.00000036  00000-0  00000+0 0  9999
2 39741  55.6455  85.9284 0013412 294.6543  65.1983  2.00567334 29829
1 39741U 14026A   18164.29893569 -.00000035  00000-0  00000-0 0  9997
2 39741  55.6458  85.9085 0013410 294.6516  65.2026  2.00567328 29854
1 39741U 14026A   18165.29608327 -.00000034  00000-0  00000+0 0  9992
2 39741  55.6464  85.8689 0013381 294.6811  65.1774  2.00567276 29856
1 39741U 14026A   18165.29608384 -.00000034  00000-0  00000-0 0  9996
2 39741  55.6464  85.8689 0013369 294.6984  65.1603  2.00567247 29874
1 39741U 14026A   18166.29323379 -.00000032  00000-0  00000+0 0  9992
2 39741  55.6470  85.8292 0013363 294.7065  65.1566  2.00567153 29870
1 39741U 14026A   18166.79180885 -.00000032  00000-0  00000-0 0  9991
2 39741  55.6473  85.8094 0013348 294.7203  65.1450  2.00567120 29900
1 39741U 14026A   18167.29038275 -.00000032  00000-0  00000+0 0  9991
2 39741  55.6475  85.7895 0013336 294.7374  65.1299  2.00567079 29898
1 39741U 14026A   18167.29038282 -.00000032  00000-0  00000-0 0  9990
2 39741  55.6475  85.7895 0013328 294.7529  65.1144  2.00567069 29912
1 39741U 14026A   18168.28752896 -.00000034  00000-0  00000+0 0  9995
2 39741  55.6481  85.7498 0013313 294.7645  65.1055  2.00567052 29914
1 39741U 14026A   18168.28752896 -.00000034  00000-0  00000-0 0  9996
2 39741  55.6481  85.7498 0013313 294.7645  65.1055  2.00567052 29936
1 39741U 14026A   18168.28752989 -.00000034  00000-0  00000-0 0  9999
2 39741  55.6481  85.7498 0013306 294.7681  65.1021  2.00567006 29930
1 39741U 14026A   18168.78610282 -.00000037  00000-0  00000+0 0  9995
2 39741  55.6484  85.7299 0013302 294.7866  65.0842  2.00566979 29920
1 39741U 14026A   18169.28467460 -.00000040  00000-0  00000-0 0  9994
2 39741  55.6487  85.7101 0013288 294.7940  65.0772  2.00566970 29957
1 39741U 14026A   18170.28181782 -.00000049  00000-0  00000+0 0  9994
2 39741  55.6493  85.6704 0013268 294.7921  65.0785  2.00566937 29956
1 39741U 14026A   18170.28181786 -.00000049  00000-0  00000-0 0  9999
2 39741  55.6492  85.6704 0013251 294.8040  65.0668  2.00566924 29978
1 39741U 14026A   18171.27896036 -.00000059  00000-0  00000-0 0  9991
2 39741  55.6498  85.6307 0013235 294.8130  65.0561  2.00566874 29993
1 39741U 14026A   18171.77753129 -.00000064  00000-0  00000-0 0  9997
2 39741  55.6501  85.6108 0013224 294.8166  65.0516  2.00566863 30006
1 39741U 14026A   18172.27610243 -.00000069  00000-0  00000+0 0  9996
2 39741  55.6504  85.5910 0013212 294.8218  65.0455  2.00566827 29992
1 39741U 14026A   18172.27610305 -.00000069  00000-0  00000-0 0  9996
2 39741  55.6504  85.5910 0013208 294.8291  65.0382  2.00566797 30018
1 39741U 14026A   18172.77467466 -.00000074  00000-0  00000+0 0  9994
2 39741  55.6507  85.5712 0013197 294.8292  65.0373  2.00566770 30009
1 39741U 14026A   18173.27324529 -.00000078  00000-0  00000-0 0  9997
2 39741  55.6510  85.5513 0013187 294.8183  65.0475  2.00566794 30032
1 39741U 14026A   18173.27324619 -.00000078  00000-0  00000-0 0  9997
2 39741  55.6510  85.5513 0013175 294.8248  65.0412  2.00566760 30035
1 39741U 14026A   18173.77181819 -.00000082  00000-0  00000+0 0  9999
2 39741  55.6513  85.5315 0013165 294.8218  65.0440  2.00566749 30021
1 39741U 14026A   18174.76896294 -.00000085  00000-0  00000-0 0  9993
2 39741  55.6519  85.4918 0013145 294.8163  65.0499  2.00566773 30067
1 39741U 14026A   18174.76896384 -.00000085  00000-0  00000+0 0  9992
2 39741  55.6519  85.4918 0013145 294.8126  65.0537  2.00566730 30040
1 39741U 14026A   18175.76611366 -.00000085  00000-0  00000-0 0  9999
2 39741  55.6525  85.4522 0013130 294.8155  65.0529  2.00566667 30088
1 39741U 14026A   18176.26468830 -.00000084  00000-0  00000+0 0  9999
2 39741  55.6528  85.4324 0013130 294.8154  65.0547  2.00566667 30079
1 39741U 14026A   18176.26468850 -.00000084  00000-0  00000-0 0  9992
2 39741  55.6527  85.4324 0013109 294.8107  65.0596  2.00566653 30093
1 39741U 14026A   18176.76326456 -.00000081  00000-0  00000+0 0  9998
2 39741  55.6530  85.4125 0013100 294.8169  65.0554  2.00566628 30080
1 39741U 14026A   18177.26184098 -.00000078  00000-0  00000-0 0  9995
2 39741  55.6533  85.3927 0013095 294.8013  65.0733  2.00566611 30118
1 39741U 14026A   18177.26184117 -.00000078  00000-0  00000-0 0  9997
2 39741  55.6533  85.3927 0013087 294.8217  65.0530  2.00566597 30113
1 39741U 14026A   18177.76041790 -.00000075  00000-0  00000+0 0  9997
2 39741  55.6536  85.3729 0013082 294.8255  65.0518  2.00566579 30108
1 39741U 14026A   18179.75472763 -.00000058  00000-0  00000-0 0  9998
2 39741  55.6548  85.2936 0013033 294.8503  65.0386  2.00566483 30165
1 39741U 14026A   18180.25330569 -.00000054  00000-0  00000+0 0  9997
2 39741  55.6551  85.2738 0013018 294.8237  65.0681  2.00566425 30159
1 39741U 14026A   18180.25330619 -.00000054  00000-0  00000-0 0  9994
2 39741  55.6550  85.2738 0013013 294.8483  65.0436  2.00566401 30170
1 39741U 14026A   18181.25045995 -.00000048  00000-0  00000+0 0  9997
2 39741  55.6557  85.2341 0012996 294.8279  65.0692  2.00566369 30176
1 39741U 14026A   18181.25046149 -.00000048  00000-0  00000-0 0  9990
2 39741  55.6556  85.2341 0012989 294.8569  65.0403  2.00566307 30193
1 39741U 14026A   18182.24761433 -.00000043  00000-0  00000+0 0  9994
2 39741  55.6563  85.1945 0012975 294.8664  65.0349  2.00566286 30196
1 39741U 14026A   18182.24761454 -.00000043  00000-0  00000-0 0  9998
2 39741  55.6562  85.1945 0012970 294.8675  65.0339  2.00566250 30215
1 39741U 14026A   18182.74619056 -.00000042  00000-0  00000+0 0  9991
2 39741  55.6565  85.1747 0012960 294.8703  65.0327  2.00566223 30205
1 39741U 14026A   18183.24476596 -.00000041  00000-0  00000-0 0  9997
2 39741  55.6568  85.1549 0012946 294.8805  65.0239  2.00566198 30231
1 39741U 14026A   18184.24191672 -.00000040  00000-0  00000+0 0  9995
2 39741  55.6574  85.1152 0012936 294.8748  65.0312  2.00566123 30233
1 39741U 14026A   18184.24191761 -.00000040  00000-0  00000-0 0  9995
2 39741  55.6574  85.1152 0012935 294.9019  65.0040  2.00566081 30257
1 39741U 14026A   18184.74049262 -.00000040  00000-0  00000+0 0  9997
2 39741  55.6577  85.0954 0012917 294.9178  64.9886  2.00566030 30244
1 39741U 14026A   18185.23906646 -.00000041  00000-0  00000-0 0  9992
2 39741  55.6580  85.0756 0012911 294.9297  64.9767  2.00566012 30275
1 39741U 14026A   18185.73764211 -.00000041  00000-0  00000+0 0  9996
2 39741  55.6583  85.0557 0012884 294.9384  64.9681  2.00565923 30267
